[{"OBJECT_NAME":"GAOFEN-9 03","OBJECT_ID":"2020-039A","EPOCH":"2026-03-09T21:55:15.121344","MEAN_MOTION":15.30529116,"ECCENTRICITY":0.0013094,"INCLINATION":97.5219,"RA_OF_ASC_NODE":201.2158,"ARG_OF_PERICENTER":77.4533,"MEAN_ANOMALY":282.8172,"EPHEMERIS_TYPE":0,"CLASSIFICATION_TYPE":"U","NORAD_CAT_ID":45794,"ELEMENT_SET_NO":999,"REV_AT_EPOCH":31856,"BSTAR":0.00039258132,"MEAN_MOTION_DOT":0.00011544,"MEAN_MOTION_DDOT":0},{"OBJECT_NAME":"STARLINK-31546","OBJECT_ID":"2024-068R","EPOCH":"2026-03-08T23:09:14.990976","MEAN_MOTION":15.27574269,"ECCENTRICITY":9.102e-5,"INCLINATION":43.0063,"RA_OF_ASC_NODE":34.9991,"ARG_OF_PERICENTER":273.1701,"MEAN_ANOMALY":86.9046,"EPHEMERIS_TYPE":0,"CLASSIFICATION_TYPE":"U","NORAD_CAT_ID":59470,"ELEMENT_SET_NO":999,"REV_AT_EPOCH":10845,"BSTAR":-2.5522893e-5,"MEAN_MOTION_DOT":-9.64e-6,"MEAN_MOTION_DDOT":0}]
